STARLINK-1436 (VISORSAT)
1 45713U 20035BJ  23240.28704834  .00001451  00000+0  11634-3 0  9995
2 45713  53.0552 246.4251 0001334  90.5264 269.5878 15.06391529179534
STARLINK-1437           
1 45714U 20035BK  23240.67591101  .00000890  00000+0  78609-4 0  9992
2 45714  53.0532 224.6806 0001405  92.3489 267.7661 15.06396873179880
STARLINK-1461           
1 45730U 20038A   23240.88601505  .00003590  00000+0  25983-3 0  9992
2 45730  53.0530  63.7349 0001383  91.4023 268.7125 15.06388477176962
STARLINK-1465           
1 45731U 20038B   23240.83440283  .00010979  00000+0  75457-3 0  9992
2 45731  53.0536  63.9650 0001578  84.5191 275.5978 15.06412596176941
STARLINK-1466           
1 45732U 20038C   23240.82336061  .00003124  00000+0  22863-3 0  9997
2 45732  53.0540  64.0130 0001187  82.0132 278.0991 15.06384647176944
STARLINK-1467           
1 45733U 20038D   23240.87340389  .00009421  00000+0  41220-3 0  9995
2 45733  53.0625  40.5617 0004356 288.8529  71.1995 15.22731189177284
STARLINK-1468           
1 45734U 20038E   23240.76798751  .00006810  00000+0  33049-3 0  9993
2 45734  53.0570  48.5008 0003722 119.5512 240.5854 15.19601554177165
STARLINK-1471           
1 45735U 20038F   23240.78281615  .00002878  00000+0  21205-3 0  9993
2 45735  53.0544  64.1970 0001803  92.0003 268.1193 15.06393298176932
STARLINK-1472           
1 45736U 20038G   23240.43228382  .00058845  00000+0  58310-3 0  9990
2 45736  53.0510 269.3290 0004687  11.5749 348.5373 15.65261066179103
STARLINK-1474           
1 45738U 20038J   23240.83810552  .00001439  00000+0  11553-3 0  9997
2 45738  53.0531  63.9515 0001435  86.3607 273.7546 15.06390769176945
STARLINK-1475           
1 45739U 20038K   23240.71920742  .00003548  00000+0  25698-3 0  9996
2 45739  53.0550  24.4707 0001169  74.5533 285.5585 15.06396238177484
STARLINK-1479           
1 45740U 20038L   23240.77912372  .00003240  00000+0  23634-3 0  9991
2 45740  53.0535  64.2128 0001371  90.9608 269.1538 15.06397523176931
STARLINK-1480           
1 45741U 20038M   23240.88233495  .00000775  00000+0  70908-4 0  9993
2 45741  53.0554  63.7519 0001265  84.4253 275.6880 15.06392331176964
STARLINK-1481           
1 45742U 20038N   23240.80861086 -.00001611  00000+0 -89311-4 0  9999
2 45742  53.0538  64.0817 0001255  81.4526 278.6605 15.06387432176932
STARLINK-1483           
1 45743U 20038P   23240.88874364  .00006988  00000+0  48757-3 0  9999
2 45743  53.0544  63.6116 0001298  89.5922 270.5216 15.06398018176956
STARLINK-1500           
1 45744U 20038Q   23240.79755248  .00009263  00000+0  63978-3 0  9990
2 45744  53.0548  64.1327 0001374  89.9357 270.1790 15.06408416176948
STARLINK-1503           
1 45745U 20038R   23240.78649685  .00001946  00000+0  14957-3 0  9990
2 45745  53.0545  64.1829 0001532  89.5969 270.5196 15.06390306176935
STARLINK-1504           
1 45746U 20038S   23240.80124098  .00001947  00000+0  14959-3 0  9993
2 45746  53.0548  64.1146 0001311  84.3574 275.7564 15.06393986176934
STARLINK-1506           
1 45747U 20038T   23240.80491934  .00001079  00000+0  91329-4 0  9993
2 45747  53.0545  64.1001 0001332  98.7448 261.3692 15.06398098176947
STARLINK-1507           
1 45748U 20038U   23240.79387954  .00019796  00000+0  13451-2 0  9991
2 45748  53.0535  64.1573 0001176 101.3172 258.7949 15.06373532176932
STARLINK-1391           
1 45750U 20038W   23240.88786112  .00000111  00000+0  26344-4 0  9991
2 45750  53.0541  43.7238 0001346  91.7372 268.3771 15.06391272177242
STARLINK-1464           
1 45751U 20038X   23240.68513051 -.00000895  00000+0 -41223-4 0  9994
2 45751  53.0550  44.6368 0001465  91.8407 268.2750 15.06392114177218
STARLINK-1476           
1 45753U 20038Z   23240.76253708  .00002118  00000+0  16106-3 0  9994
2 45753  53.0540  44.2884 0001292  80.4085 279.7050 15.06392789177221
STARLINK-1477           
1 45754U 20038AA  23240.83257135  .00009241  00000+0  63847-3 0  9999
2 45754  53.0547  43.9737 0001211  80.7596 279.3530 15.06400574177235
STARLINK-1478           
1 45755U 20038AB  23240.78465821  .00005312  00000+0  37536-3 0  9998
2 45755  53.0534  44.1882 0001147  80.4416 279.6703 15.06390289177216
STARLINK-1484           
1 45756U 20038AC  23240.84636717  .00000456  00000+0  49535-4 0  9997
2 45756  53.0555  43.9007 0001159  93.4745 266.6377 15.06396912177221
STARLINK-1486           
1 45757U 20038AD  23240.83026316  .00009193  00000+0  43856-3 0  9991
2 45757  53.0541  31.7678 0001745  54.5359 305.5798 15.19777093177391
STARLINK-1487           
1 45758U 20038AE  23240.69083325  .00009183  00000+0  42622-3 0  9998
2 45758  53.0549  31.0372 0002960  70.5551 289.5764 15.20730443177390
STARLINK-1493           
1 45759U 20038AF  23240.83994697  .00007111  00000+0  49587-3 0  9994
2 45759  53.0544  43.9383 0000965  66.5515 293.5575 15.06393284177227
STARLINK-1494           
1 45760U 20038AG  23240.84362424  .00002715  00000+0  20111-3 0  9991
2 45760  53.0540  43.9246 0001052  92.8025 267.3085 15.06395510177239
STARLINK-1499           
1 45762U 20038AJ  23240.76482226  .00008549  00000+0  37729-3 0  9991
2 45762  53.0312  16.5285 0000274 184.5595 175.5398 15.22558141177622
STARLINK-1502           
1 45764U 20038AL  23240.74041983  .00003086  00000+0  22601-3 0  9996
2 45764  53.0557  44.3894 0001332  88.4446 271.6696 15.06396663177229
STARLINK-1509           
1 45766U 20038AN  23240.70308822  .00011070  00000+0  41370-3 0  9998
2 45766  53.0485  23.9014 0001715  32.4472 327.6632 15.27859480177496
STARLINK-1511           
1 45767U 20038AP  23240.85469269  .00001973  00000+0  15135-3 0  9999
2 45767  53.0538  43.8741 0001086  89.8977 270.2137 15.06391504177220
STARLINK-1521           
1 45768U 20038AQ  23240.83626377  .00000672  00000+0  64009-4 0  9993
2 45768  53.0557  43.9586 0001494  81.3492 278.7666 15.06390756177231
STARLINK-1459           
1 45769U 20038AR  23240.91667824  .00552775  00000+0  35987-1 0  9991
2 45769  53.0545  63.6265 0001232  77.4572 215.7617 15.05451618  5834
STARLINK-1462           
1 45770U 20038AS  23240.79661105  .00010324  00000+0  71092-3 0  9993
2 45770  53.0543  24.1344 0001287  84.1317 275.9819 15.06401211177495
STARLINK-1463           
1 45771U 20038AT  23240.79018640  .00011232  00000+0  77171-3 0  9997
2 45771  53.0548  24.1638 0001270  82.4693 277.6441 15.06401242177491
STARLINK-1470           
1 45772U 20038AU  23240.77912769  .00017832  00000+0  12135-2 0  9991
2 45772  53.0553  24.2118 0001207  83.0494 277.0632 15.06385306177508
STARLINK-1482           
1 45773U 20038AV  23240.83809906  .00020507  00000+0  13921-2 0  9994
2 45773  53.0548  23.9505 0001064  88.8608 271.2502 15.06387014177511
STARLINK-1485           
1 45774U 20038AW  23240.80860722  .00019091  00000+0  12975-2 0  9999
2 45774  53.0559  24.0841 0001056  88.5797 271.5313 15.06388002177506
STARLINK-1488           
1 45775U 20038AX  23240.67271899  .00003023  00000+0  14989-3 0  9992
2 45775  53.0506   7.1881 0003007 338.3336  21.7532 15.20815925177747
STARLINK-1489           
1 45776U 20038AY  23240.81966627  .00009320  00000+0  64378-3 0  9992
2 45776  53.0558  24.0357 0000907  91.0768 269.0324 15.06397452177514
STARLINK-1490           
1 45777U 20038AZ  23240.78821163  .00038566  00000+0  19259-2 0  9995
2 45777  53.0545  16.2039 0003017  53.4598 306.6673 15.17137786177620
STARLINK-1491           
1 45778U 20038BA  23240.79755597  .00003165  00000+0  23129-3 0  9993
2 45778  53.0547  24.1364 0001296  91.7177 268.3961 15.06398508177495
STARLINK-1492           
1 45779U 20038BB  23240.66195926  .00009051  00000+0  39777-3 0  9990
2 45779  53.0402   0.9959 0001272  65.8918 294.2211 15.22630321177819
STARLINK-1496           
1 45780U 20038BC  23240.67223253  .00006390  00000+0  44752-3 0  9990
2 45780  53.0547  24.6946 0001161  78.2409 281.8710 15.06396294177478
STARLINK-1497           
1 45781U 20038BD  23240.76438005  .00003765  00000+0  27156-3 0  9996
2 45781  53.0562  24.2804 0000969  84.2829 275.8270 15.06392457177496
STARLINK-1498           
1 45782U 20038BE  23240.69586277  .00009745  00000+0  42158-3 0  9997
2 45782  53.0438   0.2241 0004684 336.4055  23.6726 15.23076246177847
STARLINK-1505           
1 45783U 20038BF  23240.69434639  .00001354  00000+0  10981-3 0  9999
2 45783  53.0558  24.5935 0001398  88.6628 271.4521 15.06392255177490
STARLINK-1510           
1 45784U 20038BG  23240.80124048  .00003337  00000+0  24282-3 0  9995
2 45784  53.0548  24.1121 0001403  94.7069 265.4080 15.06396152177502
STARLINK-1512           
1 45785U 20038BH  23240.71645781 -.00003960  00000+0 -24718-3 0  9996
2 45785  53.0544  24.4981 0001368  84.4447 275.6697 15.06388298177499
STARLINK-1513           
1 45786U 20038BJ  23240.83441041  .00006347  00000+0  44469-3 0  9998
2 45786  53.0535  23.9625 0001070  93.3689 266.7422 15.06391562177514
STARLINK-1517           
1 45787U 20038BK  23240.84179105  .00021531  00000+0  14601-2 0  9995
2 45787  53.0552  23.9352 0001275  69.9015 290.2111 15.06396014177514
STARLINK-1522           
1 46027U 20055A   23240.54967578  .00006135  00000+0  43045-3 0  9996
2 46027  53.0551 315.2468 0001066  67.2215 292.8886 15.06395589169599
STARLINK-1523           
1 46028U 20055B   23240.63076943  .00009045  00000+0  62526-3 0  9992
2 46028  53.0546 314.8800 0001250  73.8269 286.2858 15.06405592169622
STARLINK-1526           
1 46029U 20055C   23240.62339570  .00005813  00000+0  40882-3 0  9990
2 46029  53.0544 314.9165 0001211  74.6258 285.4864 15.06399381169615
STARLINK-1534           
1 46030U 20055D   23240.50912685  .00001131  00000+0  94843-4 0  9999
2 46030  53.0558 315.4268 0001291  88.9068 271.2069 15.06397677169556
STARLINK-1544           
1 46031U 20055E   23240.57821610  .00002559  00000+0  19060-3 0  9996
2 46031  53.0553 315.1064 0001187  86.1632 273.9493 15.06400054169592
